<?xml version="1.0" encoding="UTF-8"?>
<gpx creator="StravaGPX" version="1.1" xmlns="http://www.topografix.com/GPX/1/1" xmlns:xsi="http://www.w3.org/2001/XMLSchema-instance" xsi:schemaLocation="http://www.topografix.com/GPX/1/1 http://www.topografix.com/GPX/1/1/gpx.xsd">
 <metadata>
  <name>Bullhead Trail</name>
  <author>
   <name>David  D</name>
   <link href="https://www.strava.com/athletes/1710077"/>
  </author>
  <copyright author="OpenStreetMap contributors">
   <year>2020</year>
   <license>https://www.openstreetmap.org/copyright</license>
  </copyright>
  <link href="https://www.strava.com/routes/3543640204896177128"/>
 </metadata>
 <trk>
  <name>Bullhead Trail</name>
  <link href="https://www.strava.com/routes/3543640204896177128"/>
  <type>hiking</type>
  <trkseg>
   <trkpt lat="35.67584" lon="-83.48676">
    <ele>787.2</ele>
   </trkpt>
   <trkpt lat="35.675810000000006" lon="-83.48689">
    <ele>786.1</ele>
   </trkpt>
   <trkpt lat="35.675850000000004" lon="-83.48706000000001">
    <ele>785.6200000000001</ele>
   </trkpt>
   <trkpt lat="35.675990000000006" lon="-83.48737000000001">
    <ele>780.95</ele>
   </trkpt>
   <trkpt lat="35.67598" lon="-83.48747">
    <ele>780.5000000000001</ele>
   </trkpt>
   <trkpt lat="35.67593" lon="-83.48751">
    <ele>780.08</ele>
   </trkpt>
   <trkpt lat="35.67578" lon="-83.48751">
    <ele>778.5000000000001</ele>
   </trkpt>
   <trkpt lat="35.675630000000005" lon="-83.48774">
    <ele>778.2800000000001</ele>
   </trkpt>
   <trkpt lat="35.67566" lon="-83.48796">
    <ele>778.22</ele>
   </trkpt>
   <trkpt lat="35.675580000000004" lon="-83.48845">
    <ele>776.0400000000001</ele>
   </trkpt>
   <trkpt lat="35.67542" lon="-83.48868">
    <ele>775.3700000000001</ele>
   </trkpt>
   <trkpt lat="35.67524" lon="-83.48908">
    <ele>771.9800000000001</ele>
   </trkpt>
   <trkpt lat="35.675250000000005" lon="-83.48966">
    <ele>768.02</ele>
   </trkpt>
   <trkpt lat="35.675140000000006" lon="-83.49001000000001">
    <ele>767.07</ele>
   </trkpt>
   <trkpt lat="35.674980000000005" lon="-83.49024">
    <ele>766.05</ele>
   </trkpt>
   <trkpt lat="35.674960000000006" lon="-83.49101">
    <ele>768.17</ele>
   </trkpt>
   <trkpt lat="35.67492" lon="-83.49123">
    <ele>769.21</ele>
   </trkpt>
   <trkpt lat="35.674580000000006" lon="-83.49186">
    <ele>778.24</ele>
   </trkpt>
   <trkpt lat="35.67427" lon="-83.49212">
    <ele>783.5300000000001</ele>
   </trkpt>
   <trkpt lat="35.674020000000006" lon="-83.49248">
    <ele>785.6800000000001</ele>
   </trkpt>
   <trkpt lat="35.67385" lon="-83.4932">
    <ele>788.0</ele>
   </trkpt>
   <trkpt lat="35.673610000000004" lon="-83.49315">
    <ele>789.3500000000001</ele>
   </trkpt>
   <trkpt lat="35.672850000000004" lon="-83.49303">
    <ele>802.25</ele>
   </trkpt>
   <trkpt lat="35.67268" lon="-83.49311">
    <ele>802.25</ele>
   </trkpt>
   <trkpt lat="35.67239" lon="-83.49306">
    <ele>808.5000000000001</ele>
   </trkpt>
   <trkpt lat="35.672090000000004" lon="-83.49315">
    <ele>816.7700000000001</ele>
   </trkpt>
   <trkpt lat="35.67177" lon="-83.49333">
    <ele>822.19</ele>
   </trkpt>
   <trkpt lat="35.671420000000005" lon="-83.49302">
    <ele>831.6600000000001</ele>
   </trkpt>
   <trkpt lat="35.671060000000004" lon="-83.49284">
    <ele>837.96</ele>
   </trkpt>
   <trkpt lat="35.670840000000005" lon="-83.49262">
    <ele>841.9700000000001</ele>
   </trkpt>
   <trkpt lat="35.67074" lon="-83.49261000000001">
    <ele>841.9700000000001</ele>
   </trkpt>
   <trkpt lat="35.67042" lon="-83.49279000000001">
    <ele>849.94</ele>
   </trkpt>
   <trkpt lat="35.67015" lon="-83.49253">
    <ele>855.9200000000001</ele>
   </trkpt>
   <trkpt lat="35.66993" lon="-83.49245">
    <ele>860.9300000000001</ele>
   </trkpt>
   <trkpt lat="35.66975" lon="-83.49257">
    <ele>863.3900000000001</ele>
   </trkpt>
   <trkpt lat="35.66926" lon="-83.49266">
    <ele>873.83</ele>
   </trkpt>
   <trkpt lat="35.66915" lon="-83.49283000000001">
    <ele>876.75</ele>
   </trkpt>
   <trkpt lat="35.66897" lon="-83.49283000000001">
    <ele>878.32</ele>
   </trkpt>
   <trkpt lat="35.668870000000005" lon="-83.49292000000001">
    <ele>881.6</ele>
   </trkpt>
   <trkpt lat="35.668820000000004" lon="-83.49303">
    <ele>884.99</ele>
   </trkpt>
   <trkpt lat="35.66879" lon="-83.49356">
    <ele>895.0400000000001</ele>
   </trkpt>
   <trkpt lat="35.668690000000005" lon="-83.49374">
    <ele>895.0400000000001</ele>
   </trkpt>
   <trkpt lat="35.668600000000005" lon="-83.49374">
    <ele>895.0400000000001</ele>
   </trkpt>
   <trkpt lat="35.66828" lon="-83.49356">
    <ele>902.2700000000001</ele>
   </trkpt>
   <trkpt lat="35.66775499986885" lon="-83.49342499905907">
    <ele>915.0</ele>
   </trkpt>
   <trkpt lat="35.66723" lon="-83.49329">
    <ele>923.8000000000001</ele>
   </trkpt>
   <trkpt lat="35.66693" lon="-83.49315">
    <ele>929.5200000000001</ele>
   </trkpt>
   <trkpt lat="35.66646" lon="-83.49315">
    <ele>937.6000000000001</ele>
   </trkpt>
   <trkpt lat="35.66617" lon="-83.49308">
    <ele>942.59</ele>
   </trkpt>
   <trkpt lat="35.666030000000006" lon="-83.49313000000001">
    <ele>945.09</ele>
   </trkpt>
   <trkpt lat="35.66566" lon="-83.49333">
    <ele>951.8400000000001</ele>
   </trkpt>
   <trkpt lat="35.6655" lon="-83.49352">
    <ele>956.1700000000001</ele>
   </trkpt>
   <trkpt lat="35.66546" lon="-83.4937">
    <ele>956.1700000000001</ele>
   </trkpt>
   <trkpt lat="35.66546" lon="-83.49374">
    <ele>956.1700000000001</ele>
   </trkpt>
   <trkpt lat="35.66546" lon="-83.4937">
    <ele>956.1700000000001</ele>
   </trkpt>
   <trkpt lat="35.6655" lon="-83.49387">
    <ele>957.96</ele>
   </trkpt>
   <trkpt lat="35.66577" lon="-83.49427">
    <ele>963.73</ele>
   </trkpt>
   <trkpt lat="35.665940000000006" lon="-83.49432">
    <ele>966.19</ele>
   </trkpt>
   <trkpt lat="35.66608" lon="-83.49445">
    <ele>969.7800000000001</ele>
   </trkpt>
   <trkpt lat="35.66617" lon="-83.49463">
    <ele>975.59</ele>
   </trkpt>
   <trkpt lat="35.66621" lon="-83.49486">
    <ele>975.59</ele>
   </trkpt>
   <trkpt lat="35.66631" lon="-83.49507000000001">
    <ele>981.46</ele>
   </trkpt>
   <trkpt lat="35.666320000000006" lon="-83.49520000000001">
    <ele>984.8700000000001</ele>
   </trkpt>
   <trkpt lat="35.666290000000004" lon="-83.49527">
    <ele>984.8700000000001</ele>
   </trkpt>
  </trkseg>
 </trk>
</gpx>
